0 THOR ABLESTAR DEB
1 00546U 61015GF  13281.91345273  .00037642  00000-0  59199-2 0  2650
2 00546 067.2029 021.0624 0037112 111.8429 248.6649 14.71877129644918
0 THOR ABLESTAR DEB
1 00546U 61015GF  13283.06860107  .00030220  00000-0  47529-2 0  2666
2 00546 067.2028 017.8966 0036837 110.6552 249.8528 14.71958661645085
0 THOR ABLESTAR DEB
1 00546U 61015GF  13284.08780550  .00027937  00000-0  43928-2 0  2673
2 00546 067.2029 015.1025 0036543 109.5111 250.9966 14.72003407645231
0 THOR ABLESTAR DEB
1 00546U 61015GF  13286.19406379  .00022776  00000-0  35797-2 0  2694
2 00546 067.2033 009.3273 0036190 107.2195 253.2895 14.72100913645542
0 THOR ABLESTAR DEB
1 00546U 61015GF  13287.48492977  .00023533  00000-0  36947-2 0  2708
2 00546 067.2039 005.7882 0035865 105.6767 254.8319 14.72144924645738
0 THOR ABLESTAR DEB
1 00546U 61015GF  13288.09637433  .00040664  00000-0  63498-2 0  2710
2 00546 067.2038 004.1118 0035715 104.9101 255.5982 14.72192604645822
0 THOR ABLESTAR DEB
1 00546U 61015GF  13289.11540714  .00033221  00000-0  51883-2 0  2726
2 00546 067.2038 001.3176 0035625 103.7396 256.7698 14.72261055645978
0 THOR ABLESTAR DEB
1 00546U 61015GF  13289.59094107  .00033519  00000-0  52333-2 0  2730
2 00546 067.2038 000.0139 0035531 103.2981 257.2109 14.72272605646049
0 THOR ABLESTAR DEB
1 00546U 61015GF  13290.60992132  .00031998  00000-0  49919-2 0  2745
2 00546 067.2034 357.2193 0035379 102.0822 258.4270 14.72326119646191
0 THOR ABLESTAR DEB
1 00546U 61015GF  13292.17228663  .00023820  00000-0  37184-2 0  2757
2 00546 067.2029 352.9339 0035079 100.2735 260.2347 14.72408147646423
0 THOR ABLESTAR DEB
1 00546U 61015GF  13293.46287451  .00027660  00000-0  43076-2 0  2764
2 00546 067.2028 349.3933 0034853 098.6768 261.8306 14.72464660646612
0 THOR ABLESTAR DEB
1 00546U 61015GF  13294.48172335  .00031325  00000-0  48691-2 0  2773
2 00546 067.2027 346.5980 0034807 097.5113 262.9967 14.72505738646766
0 THOR ABLESTAR DEB
1 00546U 61015GF  13295.77222122  .00031860  00000-0  49448-2 0  2782
2 00546 067.2028 343.0574 0034631 095.9274 264.5799 14.72569531646956
